{
  "type": "FeatureCollection",
  "features": [
    {
      "type": "Feature",
      "properties": {
        "norad_id": 33901,
        "name": "COSMOS 2251 DEB",
        "group": "cosmos-2251-debris",
        "lat": 28.956517596083103,
        "lon": -144.46798968226676,
        "alt_km": 496.24280559638555,
        "timestamp": "2025-12-14T20:40:32.165810+00:00",
        "meta_object_name": "COSMOS 2251 DEB",
        "meta_object_id": "1993-036DE",
        "meta_epoch": "2025-12-14T04:10:53.816736",
        "meta_mean_motion": 15.16163111,
        "meta_eccentricity": 0.00313754,
        "meta_inclination": 73.7744,
        "meta_ra_of_asc_node": 46.2591,
        "meta_arg_of_pericenter": 178.2291,
        "meta_mean_anomaly": 181.902,
        "meta_ephemeris_type": 0,
        "meta_classification_type": "U",
        "meta_norad_cat_id": 33901,
        "meta_element_set_no": 999,
        "meta_rev_at_epoch": 89535,
        "meta_bstar": 0.0031999212,
        "meta_mean_motion_dot": 0.00063038,
        "meta_mean_motion_ddot": 0,
        "tle_line1": "1 33901U 93036DE  25348.17423399  .00063038  00000+0  31999-2 0  9999",
        "tle_line2": "2 33901  73.7744  46.2591 0031375 178.2291 181.9020 15.16163111895353"
      },
      "geometry": {
        "type": "Point",
        "coordinates": [
          -144.46798968226676,
          28.956517596083103
        ]
      }
    },
    {
      "type": "Feature",
      "properties": {
        "norad_id": 33905,
        "name": "COSMOS 2251 DEB",
        "group": "cosmos-2251-debris",
        "lat": -27.567303306634546,
        "lon": -55.96213563089115,
        "alt_km": 805.7313682884887,
        "timestamp": "2025-12-14T20:40:32.165821+00:00",
        "meta_object_name": "COSMOS 2251 DEB",
        "meta_object_id": "1993-036DJ",
        "meta_epoch": "2025-12-14T08:07:54.310656",
        "meta_mean_motion": 14.35394515,
        "meta_eccentricity": 0.00587573,
        "meta_inclination": 73.8872,
        "meta_ra_of_asc_node": 313.6844,
        "meta_arg_of_pericenter": 202.8941,
        "meta_mean_anomaly": 308.1571,
        "meta_ephemeris_type": 0,
        "meta_classification_type": "U",
        "meta_norad_cat_id": 33905,
        "meta_element_set_no": 999,
        "meta_rev_at_epoch": 87710,
        "meta_bstar": 0.00079927862,
        "meta_mean_motion_dot": 2.313e-05,
        "meta_mean_motion_ddot": 0,
        "tle_line1": "1 33905U 93036DJ  25348.33882304  .00002313  00000+0  79928-3 0  9990",
        "tle_line2": "2 33905  73.8872 313.6844 0058757 202.8941 308.1571 14.35394515877102"
      },
      "geometry": {
        "type": "Point",
        "coordinates": [
          -55.96213563089115,
          -27.567303306634546
        ]
      }
    },
    {
      "type": "Feature",
      "properties": {
        "norad_id": 33906,
        "name": "COSMOS 2251 DEB",
        "group": "cosmos-2251-debris",
        "lat": 20.626405984858057,
        "lon": -36.369913019520205,
        "alt_km": 680.8084484849614,
        "timestamp": "2025-12-14T20:40:32.165831+00:00",
        "meta_object_name": "COSMOS 2251 DEB",
        "meta_object_id": "1993-036DK",
        "meta_epoch": "2025-12-14T07:57:25.515648",
        "meta_mean_motion": 14.57131872,
        "meta_eccentricity": 0.00366279,
        "meta_inclination": 74.0304,
        "meta_ra_of_asc_node": 318.4489,
        "meta_arg_of_pericenter": 347.5223,
        "meta_mean_anomaly": 135.0823,
        "meta_ephemeris_type": 0,
        "meta_classification_type": "U",
        "meta_norad_cat_id": 33906,
        "meta_element_set_no": 999,
        "meta_rev_at_epoch": 88031,
        "meta_bstar": 0.0023457832,
        "meta_mean_motion_dot": 0.00010661,
        "meta_mean_motion_ddot": 0,
        "tle_line1": "1 33906U 93036DK  25348.33154532  .00010661  00000+0  23458-2 0  9997",
        "tle_line2": "2 33906  74.0304 318.4489 0036627 347.5223 135.0823 14.57131872880319"
      },
      "geometry": {
        "type": "Point",
        "coordinates": [
          -36.369913019520205,
          20.626405984858057
        ]
      }
    },
    {
      "type": "Feature",
      "properties": {
        "norad_id": 33907,
        "name": "COSMOS 2251 DEB",
        "group": "cosmos-2251-debris",
        "lat": 26.57341762210141,
        "lon": -158.41435936625243,
        "alt_km": 757.0803052690762,
        "timestamp": "2025-12-14T20:40:32.165841+00:00",
        "meta_object_name": "COSMOS 2251 DEB",
        "meta_object_id": "1993-036DL",
        "meta_epoch": "2025-12-14T05:09:31.245408",
        "meta_mean_motion": 14.30524064,
        "meta_eccentricity": 0.0112051,
        "meta_inclination": 74.0707,
        "meta_ra_of_asc_node": 30.9721,
        "meta_arg_of_pericenter": 86.0287,
        "meta_mean_anomaly": 336.6958,
        "meta_ephemeris_type": 0,
        "meta_classification_type": "U",
        "meta_norad_cat_id": 33907,
        "meta_element_set_no": 999,
        "meta_rev_at_epoch": 86601,
        "meta_bstar": 0.0016948793,
        "meta_mean_motion_dot": 4.709e-05,
        "meta_mean_motion_ddot": 0,
        "tle_line1": "1 33907U 93036DL  25348.21494497  .00004709  00000+0  16949-2 0  9995",
        "tle_line2": "2 33907  74.0707  30.9721 0112051  86.0287 336.6958 14.30524064866012"
      },
      "geometry": {
        "type": "Point",
        "coordinates": [
          -158.41435936625243,
          26.57341762210141
        ]
      }
    },
    {
      "type": "Feature",
      "properties": {
        "norad_id": 33908,
        "name": "COSMOS 2251 DEB",
        "group": "cosmos-2251-debris",
        "lat": 5.38696996016675,
        "lon": -156.43165159676713,
        "alt_km": 993.6073216120421,
        "timestamp": "2025-12-14T20:40:32.165851+00:00",
        "meta_object_name": "COSMOS 2251 DEB",
        "meta_object_id": "1993-036DM",
        "meta_epoch": "2025-12-14T00:10:34.044672",
        "meta_mean_motion": 14.07354172,
        "meta_eccentricity": 0.02229874,
        "meta_inclination": 73.8379,
        "meta_ra_of_asc_node": 203.5164,
        "meta_arg_of_pericenter": 226.8125,
        "meta_mean_anomaly": 131.4194,
        "meta_ephemeris_type": 0,
        "meta_classification_type": "U",
        "meta_norad_cat_id": 33908,
        "meta_element_set_no": 999,
        "meta_rev_at_epoch": 85491,
        "meta_bstar": 0.0022102497,
        "meta_mean_motion_dot": 4.635e-05,
        "meta_mean_motion_ddot": 0,
        "tle_line1": "1 33908U 93036DM  25348.00733848  .00004635  00000+0  22102-2 0  9995",
        "tle_line2": "2 33908  73.8379 203.5164 0222987 226.8125 131.4194 14.07354172854913"
      },
      "geometry": {
        "type": "Point",
        "coordinates": [
          -156.43165159676713,
          5.38696996016675
        ]
      }
    },
    {
      "type": "Feature",
      "properties": {
        "norad_id": 33911,
        "name": "COSMOS 2251 DEB",
        "group": "cosmos-2251-debris",
        "lat": -65.92418921964426,
        "lon": 118.05057620925375,
        "alt_km": 662.046218213749,
        "timestamp": "2025-12-14T20:40:32.165862+00:00",
        "meta_object_name": "COSMOS 2251 DEB",
        "meta_object_id": "1993-036DQ",
        "meta_epoch": "2025-12-14T06:38:43.403136",
        "meta_mean_motion": 14.74905503,
        "meta_eccentricity": 0.00141936,
        "meta_inclination": 74.09,
        "meta_ra_of_asc_node": 158.8596,
        "meta_arg_of_pericenter": 98.0425,
        "meta_mean_anomaly": 327.6264,
        "meta_ephemeris_type": 0,
        "meta_classification_type": "U",
        "meta_norad_cat_id": 33911,
        "meta_element_set_no": 999,
        "meta_rev_at_epoch": 88667,
        "meta_bstar": 0.0022041175,
        "meta_mean_motion_dot": 0.00014821,
        "meta_mean_motion_ddot": 0,
        "tle_line1": "1 33911U 93036DQ  25348.27689124  .00014821  00000+0  22041-2 0  9995",
        "tle_line2": "2 33911  74.0900 158.8596 0014193  98.0425 327.6264 14.74905503886670"
      },
      "geometry": {
        "type": "Point",
        "coordinates": [
          118.05057620925375,
          -65.92418921964426
        ]
      }
    },
    {
      "type": "Feature",
      "properties": {
        "norad_id": 33912,
        "name": "COSMOS 2251 DEB",
        "group": "cosmos-2251-debris",
        "lat": -0.1954381530037059,
        "lon": -174.3271594483184,
        "alt_km": 722.8351121015885,
        "timestamp": "2025-12-14T20:40:32.165873+00:00",
        "meta_object_name": "COSMOS 2251 DEB",
        "meta_object_id": "1993-036DR",
        "meta_epoch": "2025-12-13T23:43:57.676800",
        "meta_mean_motion": 14.51904497,
        "meta_eccentricity": 0.0011438,
        "meta_inclination": 74.0336,
        "meta_ra_of_asc_node": 187.372,
        "meta_arg_of_pericenter": 266.303,
        "meta_mean_anomaly": 214.2642,
        "meta_ephemeris_type": 0,
        "meta_classification_type": "U",
        "meta_norad_cat_id": 33912,
        "meta_element_set_no": 999,
        "meta_rev_at_epoch": 88451,
        "meta_bstar": 0.00087715447,
        "meta_mean_motion_dot": 3.513e-05,
        "meta_mean_motion_ddot": 0,
        "tle_line1": "1 33912U 93036DR  25347.98886200  .00003513  00000+0  87715-3 0  9993",
        "tle_line2": "2 33912  74.0336 187.3720 0011438 266.3030 214.2642 14.51904497884519"
      },
      "geometry": {
        "type": "Point",
        "coordinates": [
          -174.3271594483184,
          -0.1954381530037059
        ]
      }
    }
  ]
}